OBJECT_NAME,OBJECT_ID,EPOCH,MEAN_MOTION,ECCENTRICITY,INCLINATION,RA_OF_ASC_NODE,ARG_OF_PERICENTER,MEAN_ANOMALY,EPHEMERIS_TYPE,CLASSIFICATION_TYPE,NORAD_CAT_ID,ELEMENT_SET_NO,REV_AT_EPOCH,BSTAR,MEAN_MOTION_DOT,MEAN_MOTION_DDOT
COSMOS 2058,1990-010A,2026-07-01T19:50:28.210560,15.12102950,.00084719,82.4694,294.9183,304.3322,55.7106,0,U,20465,999,95948,.17961823E-3,.3122E-4,0
SL-14 R/B,1990-010B,2026-07-01T22:30:30.121632,14.83655993,.00182321,82.5023,160.0918,284.6606,75.2587,0,U,20466,999,94542,.47713334E-4,.418E-5,0
SL-14 R/B,1990-018B,2026-07-01T19:05:43.937952,14.82226226,.00176717,82.5220,116.4542,77.6861,282.6331,0,U,20511,999,93948,.50619248E-4,.428E-5,0
HST,1990-037B,2026-07-01T17:54:43.369920,15.30920354,.00015447,28.4737,341.0598,324.3988,35.6505,0,U,20580,999,79080,.24319917E-3,.7715E-4,0
SL-16 R/B,1990-046B,2026-07-01T22:25:58.072224,14.15024455,.00125442,70.9993,57.9765,137.8224,222.3866,0,U,20625,999,86455,-.10043277E-3,-.242E-5,0
COSMOS 2084,1990-055A,2026-07-01T11:14:56.454144,15.06175927,.00065453,62.7914,307.3435,302.3620,57.6847,0,U,20663,999,95345,.16884297E-3,.2284E-4,0
SL-6 R/B(2),1990-055D,2026-07-01T16:13:53.172768,15.04046516,.0043006,62.7805,226.0700,7.1059,353.0640,0,U,20666,999,95533,.12038121E-3,.1498E-4,0
SL-8 R/B,1990-078B,2026-07-01T22:37:06.771936,14.93071421,.03465692,82.9027,148.3057,348.6088,10.7422,0,U,20775,999,82632,.84165968E-3,.29755E-3,0
SL-8 R/B,1991-006B,2026-07-01T15:42:53.290080,13.77507392,.00238652,82.9422,85.2713,76.4035,303.3260,0,U,21088,999,77976,.80201825E-4,.95E-6,0
OKEAN-3,1991-039A,2026-07-01T15:06:14.856768,15.05387688,.00123907,82.5150,226.3769,304.4437,55.5618,0,U,21397,999,88217,.14195323E-3,.2065E-4,0
COSMOS 2151,1991-042A,2026-07-01T22:20:52.545408,15.00480892,.00131458,82.4971,333.4508,38.9893,321.2277,0,U,21422,999,88032,.1183625E-3,.1519E-4,0
SL-14 R/B,1991-042B,2026-07-01T22:34:02.755488,14.81911584,.00158717,82.4935,113.0613,221.7914,138.2089,0,U,21423,999,86999,.46005479E-4,.388E-5,0
ERS-1,1991-050A,2026-07-01T21:36:33.607008,14.39527109,.0031123,98.7793,203.9578,221.8038,138.0771,0,U,21574,999,83216,.138222E-3,.387E-5,0
ARIANE 40 R/B,1991-050F,2026-07-01T21:19:10.175808,14.42965532,.00044704,98.1867,230.7322,89.9220,270.2483,0,U,21610,999,83546,.10037751E-3,.294E-5,0
INTERCOSMOS 25,1991-086A,2026-07-01T09:23:00.306528,12.12218892,.14840154,82.6032,241.2148,231.7218,114.1045,0,U,21819,999,51046,.14099444E-3,.713E-5,0
SL-8 R/B,1992-008B,2026-07-01T23:02:11.530752,13.75980786,.00348343,82.9260,182.8035,173.0098,247.3137,0,U,21876,999,72513,.12154185E-3,.134E-5,0
SL-8 R/B,1992-020B,2026-07-01T22:55:39.789696,13.75550063,.00287095,82.9297,68.8878,341.5880,28.6462,0,U,21938,999,71684,.40501364E-4,.54E-6,0
USA 81,1992-023A,2026-07-01T22:40:17.214816,14.32402026,.00024996,85.0064,65.4897,71.9460,288.2005,0,U,21949,999,11114,.5775125E-4,.176E-5,0
COSMOS 2219,1992-076A,2026-07-01T21:41:44.055168,14.14108825,.00174083,71.0606,139.3068,19.1455,341.0318,0,U,22219,999,73452,.10060773E-3,.145E-5,0
SL-16 R/B,1992-076B,2026-07-01T19:16:08.653152,14.16874546,.00150674,71.0013,307.9921,279.4153,232.4554,0,U,22220,999,73799,-.76807292E-4,-.202E-5,0
COSMOS 2221,1992-080A,2026-07-01T21:58:24.095424,14.96572414,.00146734,82.5033,169.6530,161.8679,198.3070,0,U,22236,999,79787,.14500684E-3,.1679E-4,0
SL-16 R/B,1992-093B,2026-07-01T22:36:03.267936,14.15464188,.0003134,71.0215,124.4173,160.9124,199.2117,0,U,22285,999,72932,.16540243E-3,.276E-5,0
COSMOS 2228,1992-094A,2026-07-01T22:05:35.811168,14.97639124,.00159841,82.5185,127.9306,278.5101,81.4310,0,U,22286,999,79315,.17589221E-3,.2087E-4,0
SL-16 R/B,1993-016B,2026-07-01T20:27:46.488960,14.15314145,.00092781,71.0088,335.4041,161.7920,198.3537,0,U,22566,999,71832,-.11271711E-3,-.267E-5,0
COSMOS 2242,1993-024A,2026-07-01T22:53:10.650336,14.96949577,.00144053,82.5187,157.4150,282.3952,77.5658,0,U,22626,999,79748,.16319122E-3,.1904E-4,0
SL-16 R/B,1993-059B,2026-07-01T23:00:47.346912,14.17249403,.00159336,70.9899,130.1530,29.6586,330.5438,0,U,22803,999,69572,.1477121E-3,.251E-5,0
ARIANE 40 R/B,1993-061H,2026-07-01T22:32:19.365792,14.32913896,.00096574,98.4813,249.4894,309.9136,50.1199,0,U,22830,999,71046,.94319354E-4,.215E-5,0
COSMOS 2278,1994-023A,2026-07-01T17:52:53.434560,14.14396874,.00102954,71.0548,296.4668,225.6867,134.3412,0,U,23087,999,66093,-.89598532E-4,-.219E-5,0
SL-16 R/B,1994-023B,2026-07-01T17:46:04.777248,14.15026513,.00018,70.9980,191.3684,171.1682,188.9473,0,U,23088,999,66222,-.9087784E-4,-.224E-5,0
SL-16 R/B,1994-074B,2026-07-01T23:01:09.086016,14.79514912,.00060037,97.6985,209.0643,196.5282,227.4623,0,U,23343,999,70414,.67313392E-4,.454E-5,0
