COSMOS 2058             
1 20465U 90010A   26182.82671540  .00003122  00000+0  17962-3 0  9994
2 20465  82.4694 294.9183 0008471 304.3322  55.7106 15.12102950959480
SL-14 R/B               
1 20466U 90010B   26182.93784863  .00000418  00000+0  47713-4 0  9993
2 20466  82.5023 160.0918 0018232 284.6606  75.2587 14.83655993945424
SL-14 R/B               
1 20511U 90018B   26182.79564743  .00000428  00000+0  50619-4 0  9999
2 20511  82.5220 116.4542 0017671  77.6861 282.6331 14.82226226939483
HST                     
1 20580U 90037B   26182.74633530  .00007715  00000+0  24320-3 0  9997
2 20580  28.4737 341.0598 0001544 324.3988  35.6505 15.30920354790809
SL-16 R/B               
1 20625U 90046B   26182.93469991 -.00000242  00000+0 -10043-3 0  9993
2 20625  70.9993  57.9765 0012544 137.8224 222.3866 14.15024455864554
COSMOS 2084             
1 20663U 90055A   26182.46870896  .00002284  00000+0  16884-3 0  9998
2 20663  62.7914 307.3435 0006545 302.3620  57.6847 15.06175927953455
SL-6 R/B(2)             
1 20666U 90055D   26182.67630987  .00001498  00000+0  12038-3 0  9992
2 20666  62.7805 226.0700 0043006   7.1059 353.0640 15.04046516955330
SL-8 R/B                
1 20775U 90078B   26182.94243949  .00029755  00000+0  84166-3 0  9993
2 20775  82.9027 148.3057 0346569 348.6088  10.7422 14.93071421826328
SL-8 R/B                
1 21088U 91006B   26182.65478345  .00000095  00000+0  80202-4 0  9995
2 21088  82.9422  85.2713 0023865  76.4035 303.3260 13.77507392779760
OKEAN-3                 
1 21397U 91039A   26182.62933862  .00002065  00000+0  14195-3 0  9997
2 21397  82.5150 226.3769 0012390 304.4437  55.5618 15.05387688882177
COSMOS 2151             
1 21422U 91042A   26182.93116372  .00001519  00000+0  11836-3 0  9995
2 21422  82.4971 333.4508 0013145  38.9893 321.2277 15.00480892880326
SL-14 R/B               
1 21423U 91042B   26182.94030967  .00000388  00000+0  46005-4 0  9992
2 21423  82.4935 113.0613 0015871 221.7914 138.2089 14.81911584869992
ERS-1                   
1 21574U 91050A   26182.90038897  .00000387  00000+0  13822-3 0  9993
2 21574  98.7793 203.9578 0031123 221.8038 138.0771 14.39527109832160
ARIANE 40 R/B           
1 21610U 91050F   26182.88831222  .00000294  00000+0  10038-3 0  9997
2 21610  98.1867 230.7322 0004470  89.9220 270.2483 14.42965532835468
INTERCOSMOS 25          
1 21819U 91086A   26182.39097577  .00000713  00000+0  14099-3 0  9997
2 21819  82.6032 241.2148 1484015 231.7218 114.1045 12.12218892510461
SL-8 R/B                
1 21876U 92008B   26182.95985568  .00000134  00000+0  12154-3 0  9990
2 21876  82.9260 182.8035 0034834 173.0098 247.3137 13.75980786725139
SL-8 R/B                
1 21938U 92020B   26182.95532164  .00000054  00000+0  40501-4 0  9992
2 21938  82.9297  68.8878 0028709 341.5880  28.6462 13.75550063716841
USA 81                  
1 21949U 92023A   26182.94464369  .00000176  00000+0  57751-4 0  9997
2 21949  85.0064  65.4897 0002499  71.9460 288.2005 14.32402026111147
COSMOS 2219             
1 22219U 92076A   26182.90398212  .00000145  00000+0  10061-3 0  9993
2 22219  71.0606 139.3068 0017408  19.1455 341.0318 14.14108825734528
SL-16 R/B               
1 22220U 92076B   26182.80287793 -.00000202  00000+0 -76807-4 0  9992
2 22220  71.0013 307.9921 0015067 279.4153 232.4554 14.16874546737999
COSMOS 2221             
1 22236U 92080A   26182.91555666  .00001679  00000+0  14501-3 0  9992
2 22236  82.5033 169.6530 0014673 161.8679 198.3070 14.96572414797876
SL-16 R/B               
1 22285U 92093B   26182.94170449  .00000276  00000+0  16540-3 0  9992
2 22285  71.0215 124.4173 0003134 160.9124 199.2117 14.15464188729328
COSMOS 2228             
1 22286U 92094A   26182.92055337  .00002087  00000+0  17589-3 0  9996
2 22286  82.5185 127.9306 0015984 278.5101  81.4310 14.97639124793158
SL-16 R/B               
1 22566U 93016B   26182.85262140 -.00000267  00000+0 -11272-3 0  9999
2 22566  71.0088 335.4041 0009278 161.7920 198.3537 14.15314145718325
COSMOS 2242             
1 22626U 93024A   26182.95359549  .00001904  00000+0  16319-3 0  9990
2 22626  82.5187 157.4150 0014405 282.3952  77.5658 14.96949577797483
SL-16 R/B               
1 22803U 93059B   26182.95888133  .00000251  00000+0  14771-3 0  9995
2 22803  70.9899 130.1530 0015933  29.6586 330.5438 14.17249403695729
ARIANE 40 R/B           
1 22830U 93061H   26182.93911303  .00000215  00000+0  94319-4 0  9999
2 22830  98.4813 249.4894 0009657 309.9136  50.1199 14.32913896710467
COSMOS 2278             
1 23087U 94023A   26182.74506290 -.00000219  00000+0 -89599-4 0  9997
2 23087  71.0548 296.4668 0010295 225.6867 134.3412 14.14396874660930
SL-16 R/B               
1 23088U 94023B   26182.74033307 -.00000224  00000+0 -90878-4 0  9990
2 23088  70.9980 191.3684 0001800 171.1682 188.9473 14.15026513662229
SL-16 R/B               
1 23343U 94074B   26182.95913294  .00000454  00000+0  67313-4 0  9996
2 23343  97.6985 209.0643 0006003 196.5282 227.4623 14.79514912704142
